NORAD_CAT_ID,OBJECT_NAME,OBJECT_TYPE,EPOCH,MEAN_MOTION,ECCENTRICITY,INCLINATION,RA_OF_ASC_NODE,ARG_OF_PERICENTER,MEAN_ANOMALY,BSTAR,MEAN_MOTION_DOT,MEAN_MOTION_DDOT,TLE_LINE0,TLE_LINE1,TLE_LINE2,SEMIMAJOR_AXIS,PERIOD,APOGEE,PERIGEE,DECAYED
53611.0,STARLINK-4650,PAYLOAD,2023-10-13 05:26:07,15.08861771,0.0001672,53.2172,217.9248,89.9507,270.1676,0.0013924,0.00021955,0.0,0 STARLINK-4650,1 53611U 22104Z   23286.22647013  .00021955  00000-0  13924-2 0  9994,2 53611  53.2172 217.9248 0001672  89.9507 270.1676 15.08861771 63131,6917.814,95.436,540.836,538.522,0.0
53611.0,STARLINK-4650,PAYLOAD,2023-10-14 02:06:07,15.08862235,0.0001703,53.2175,214.0533,97.4459,262.6727,0.00060573,9.371e-05,0.0,0 STARLINK-4650,1 53611U 22104Z   23287.08758365  .00009371  00000-0  60573-3 0  9993,2 53611  53.2175 214.0533 0001703  97.4459 262.6727 15.08862235 62570,6917.812,95.436,540.856,538.499,0.0
53611.0,STARLINK-4650,PAYLOAD,2023-10-14 11:38:26,15.08853874,0.0001735,53.2178,212.2744,71.1819,288.9361,0.00028779,4.297e-05,0.0,0 STARLINK-4650,1 53611U 22104Z   23287.48502386  .00004297  00000-0  28779-3 0  9991,2 53611  53.2178 212.2744 0001735  71.1819 288.9361 15.08853874 63329,6917.838,95.437,540.903,538.503,0.0
53611.0,STARLINK-4650,PAYLOAD,2023-10-14 19:35:22,15.08844687,0.0003455,53.218,210.7883,80.3337,279.8046,3.8065e-05,3.17e-06,0.0,0 STARLINK-4650,1 53611U 22104Z   23287.81623586  .00000317  00000-0  38065-4 0  9993,2 53611  53.2180 210.7883 0003455  80.3337 279.8046 15.08844687 62686,6917.866,95.437,542.121,537.341,0.0
53611.0,STARLINK-4650,PAYLOAD,2023-10-15 00:21:32,15.08816358,0.0001489,53.2178,209.8954,78.5384,281.5776,0.00010207,1.336e-05,0.0,0 STARLINK-4650,1 53611U 22104Z   23288.01495688  .00001336  00000-0  10207-3 0  9995,2 53611  53.2178 209.8954 0001489  78.5384 281.5776 15.08816358 62715,6917.953,95.439,540.848,538.788,0.0
53611.0,STARLINK-4650,PAYLOAD,2023-10-15 11:29:14,15.08831585,0.0001402,53.2171,207.8146,87.0517,273.0635,0.0011488,0.00018038,0.0,0 STARLINK-4650,1 53611U 22104Z   23288.47864202  .00018038  00000-0  11488-2 0  9995,2 53611  53.2171 207.8146 0001402  87.0517 273.0635 15.08831585 62783,6917.906,95.438,540.741,538.801,0.0
53611.0,STARLINK-4650,PAYLOAD,2023-10-15 22:36:56,15.08858694,0.0001294,53.2165,205.7346,87.3805,272.7335,0.0017146,0.00027119,0.0,0 STARLINK-4650,1 53611U 22104Z   23288.94232037  .00027119  00000-0  17146-2 0  9999,2 53611  53.2165 205.7346 0001294  87.3805 272.7335 15.08858694 63545,6917.823,95.436,540.583,538.793,0.0
53611.0,STARLINK-4650,PAYLOAD,2023-10-16 03:23:05,15.08874042,0.0001291,53.2165,204.8421,88.2953,271.8187,0.0019801,0.00031395,0.0,0 STARLINK-4650,1 53611U 22104Z   23289.14103597  .00031395  00000-0  19801-2 0  9991,2 53611  53.2165 204.8421 0001291  88.2953 271.8187 15.08874042 62886,6917.776,95.435,540.534,538.748,0.0
53611.0,STARLINK-4650,PAYLOAD,2023-10-16 11:20:01,15.08864687,0.0001429,53.2173,203.3538,91.8857,268.2299,0.00068701,0.0001067,0.0,0 STARLINK-4650,1 53611U 22104Z   23289.47223394  .00010670  00000-0  68701-3 0  9992,2 53611  53.2173 203.3538 0001429  91.8857 268.2299 15.08864687 62938,6917.805,95.436,540.658,538.681,0.0
53611.0,STARLINK-4650,PAYLOAD,2023-10-16 20:52:19,15.08857587,0.0001428,53.2156,201.5718,94.9771,265.1384,0.00088525,0.00013836,0.0,0 STARLINK-4650,1 53611U 22104Z   23289.86967277  .00013836  00000-0  88525-3 0  9993,2 53611  53.2156 201.5718 0001428  94.9771 265.1384 15.08857587 63682,6917.827,95.436,540.679,538.704,0.0
53611.0,STARLINK-4650,PAYLOAD,2023-10-17 11:10:48,15.08852871,0.000216,53.2157,198.895,85.2334,274.8905,0.00063386,9.818e-05,0.0,0 STARLINK-4650,1 53611U 22104Z   23290.46583357  .00009818  00000-0  63386-3 0  9997,2 53611  53.2157 198.8950 0002160  85.2334 274.8905 15.08852871 63082,6917.841,95.437,541.2,538.212,0.0
53611.0,STARLINK-4650,PAYLOAD,2023-10-18 01:29:16,15.08854075,0.0001314,53.2155,196.2192,90.9672,269.147,0.0018953,0.00030016,0.0,0 STARLINK-4650,1 53611U 22104Z   23291.06199123  .00030016  00000-0  18953-2 0  9991,2 53611  53.2155 196.2192 0001314  90.9672 269.1470 15.08854075 63866,6917.837,95.437,540.611,538.793,0.0
53611.0,STARLINK-4650,PAYLOAD,2023-10-18 11:01:35,15.0884694,0.0001596,53.2161,194.4338,82.064,278.0533,0.0012566,0.00019771,0.0,0 STARLINK-4650,1 53611U 22104Z   23291.45943490  .00019771  00000-0  12566-2 0  9997,2 53611  53.2161 194.4338 0001596  82.0640 278.0533 15.08846940 63236,6917.859,95.437,540.828,538.62,0.0
53611.0,STARLINK-4650,PAYLOAD,2023-10-18 20:33:54,15.08844789,0.0001847,53.2136,192.6498,84.4332,275.6871,0.0016314,0.00025775,0.0,0 STARLINK-4650,1 53611U 22104Z   23291.85687846  .00025775  00000-0  16314-2 0  9997,2 53611  53.2136 192.6498 0001847  84.4332 275.6871 15.08844789 63987,6917.866,95.437,541.008,538.453,0.0
53611.0,STARLINK-4650,PAYLOAD,2023-10-19 02:55:26,15.08858273,0.000136,53.2155,191.4585,92.0993,268.0155,0.0012339,0.00019414,0.0,0 STARLINK-4650,1 53611U 22104Z   23292.12183316  .00019414  00000-0  12339-2 0  9997,2 53611  53.2155 191.4585 0001360  92.0993 268.0155 15.08858273 63333,6917.825,95.436,540.63,538.749,0.0
53611.0,STARLINK-4650,PAYLOAD,2023-10-19 23:35:26,15.08864303,0.0001525,53.2159,187.5929,96.5266,263.59,0.00064765,0.00010041,0.0,0 STARLINK-4650,1 53611U 22104Z   23292.98294610  .00010041  00000-0  64765-3 0  9999,2 53611  53.2159 187.5929 0001525  96.5266 263.5900 15.08864303 63463,6917.806,95.436,540.726,538.616,0.0
53611.0,STARLINK-4650,PAYLOAD,2023-10-20 17:04:41,15.08826684,0.0001632,53.2167,184.323,86.8706,273.2473,0.0006059,9.365e-05,0.0,0 STARLINK-4650,1 53611U 22104Z   23293.71159568  .00009365  00000-0  60590-3 0  9992,2 53611  53.2167 184.3230 0001632  86.8706 273.2473 15.08826684 63577,6917.921,95.438,540.915,538.657,0.0
53611.0,STARLINK-4650,PAYLOAD,2023-10-20 21:50:51,15.0882918,0.0001448,53.2178,183.429,112.5172,247.5974,-4.6022e-05,-1.02e-05,0.0,0 STARLINK-4650,1 53611U 22104Z   23293.91031385 -.00001020  00000-0 -46022-4 0  9997,2 53611  53.2178 183.4290 0001448 112.5172 247.5974 15.08829180 64298,6917.913,95.438,540.78,538.777,0.0
53611.0,STARLINK-4650,PAYLOAD,2023-10-21 02:37:00,15.08830597,0.0001133,53.2157,182.5372,107.2743,252.8373,-7.3513e-05,-1.457e-05,0.0,0 STARLINK-4650,1 53611U 22104Z   23294.10903808 -.00001457  00000-0 -73513-4 0  9996,2 53611  53.2157 182.5372 0001133 107.2743 252.8373 15.08830597 63635,6917.909,95.438,540.558,538.99,0.0
53611.0,STARLINK-4650,PAYLOAD,2023-10-21 20:06:15,15.08855602,0.0001418,53.2161,179.2668,114.0714,246.0427,0.00080193,0.00012503,0.0,0 STARLINK-4650,1 53611U 22104Z   23294.83767421  .00012503  00000-0  80193-3 0  9998,2 53611  53.2161 179.2668 0001418 114.0714 246.0427 15.08855602 63742,6917.833,95.437,540.679,538.717,0.0
53611.0,STARLINK-4650,PAYLOAD,2023-10-21 21:41:38,15.08856607,0.0001409,53.2163,178.9697,115.9954,244.1184,0.00077273,0.00012037,0.0,0 STARLINK-4650,1 53611U 22104Z   23294.90391329  .00012037  00000-0  77273-3 0  9993,2 53611  53.2163 178.9697 0001409 115.9954 244.1184 15.08856607 64441,6917.83,95.437,540.669,538.72,0.0
53611.0,STARLINK-4650,PAYLOAD,2023-10-22 08:49:19,15.08857621,4.01e-05,53.216,176.8879,49.6291,310.4736,0.00049509,7.604e-05,0.0,0 STARLINK-4650,1 53611U 22104Z   23295.36758804  .00007604  00000-0  49509-3 0  9994,2 53611  53.2160 176.8879 0000401  49.6291 310.4736 15.08857621 63823,6917.827,95.436,539.969,539.414,0.0
53611.0,STARLINK-4650,PAYLOAD,2023-10-22 19:57:02,15.08822747,7.93e-05,53.2161,174.8078,80.9771,279.1311,-0.0002486,-4.24e-05,0.0,0 STARLINK-4650,1 53611U 22104Z   23295.83128301 -.00004240  00000-0 -24860-3 0  9997,2 53611  53.2161 174.8078 0000793  80.9771 279.1311 15.08822747 63896,6917.933,95.439,540.347,539.25,0.0
53611.0,STARLINK-4650,PAYLOAD,2023-10-22 23:07:48,15.0882743,8.26e-05,53.216,174.2133,82.8187,277.2899,1.3187e-06,-2.67e-06,0.0,0 STARLINK-4650,1 53611U 22104Z   23295.96376017 -.00000267  00000-0  13187-5 0  9996,2 53611  53.2160 174.2133 0000826  82.8187 277.2899 15.08827430 64604,6917.919,95.438,540.355,539.212,0.0
53611.0,STARLINK-4650,PAYLOAD,2023-10-23 22:58:36,15.08852674,8.37e-05,53.2159,169.7537,72.7247,287.3837,0.0012767,0.00020096,0.0,0 STARLINK-4650,1 53611U 22104Z   23296.95736655  .00020096  00000-0  12767-2 0  9995,2 53611  53.2159 169.7537 0000837  72.7247 287.3837 15.08852674 64754,6917.842,95.437,540.286,539.128,0.0
53611.0,STARLINK-4650,PAYLOAD,2023-10-24 08:30:55,15.08855207,7.46e-05,53.2156,167.9697,81.2615,278.8462,0.00086818,0.00013562,0.0,0 STARLINK-4650,1 53611U 22104Z   23297.35480417  .00013562  00000-0  86818-3 0  9991,2 53611  53.2156 167.9697 0000746  81.2615 278.8462 15.08855207 64126,6917.834,95.437,540.215,539.183,0.0
53611.0,STARLINK-4650,PAYLOAD,2023-10-25 14:43:14,15.088488,9.31e-05,53.2137,162.3187,80.1481,279.9616,0.00027559,4.102e-05,0.0,0 STARLINK-4650,1 53611U 22104Z   23298.61335814  .00004102  00000-0  27559-3 0  9998,2 53611  53.2137 162.3187 0000931  80.1481 279.9616 15.08848800 64318,6917.853,95.437,540.363,539.074,0.0
53611.0,STARLINK-4650,PAYLOAD,2023-10-25 22:40:09,15.0885042,8.57e-05,53.2161,160.831,78.4362,281.6726,0.00029254,4.372e-05,0.0,0 STARLINK-4650,1 53611U 22104Z   23298.94455823  .00004372  00000-0  29254-3 0  9990,2 53611  53.2161 160.8310 0000857  78.4362 281.6726 15.08850420 65056,6917.849,95.437,540.306,539.121,0.0
53611.0,STARLINK-4650,PAYLOAD,2023-10-26 20:55:33,15.08848215,9.11e-05,53.2152,156.669,80.1548,279.9547,0.0004895,7.513e-05,0.0,0 STARLINK-4650,1 53611U 22104Z   23299.87191923  .00007513  00000-0  48950-3 0  9995,2 53611  53.2152 156.6690 0000911  80.1548 279.9547 15.08848215 65192,6917.855,95.437,540.35,539.09,0.0
53611.0,STARLINK-4650,PAYLOAD,2023-10-27 08:03:15,15.08849825,9.57e-05,53.215,154.5881,80.1406,279.9694,0.00045072,6.895e-05,0.0,0 STARLINK-4650,1 53611U 22104Z   23300.33559864  .00006895  00000-0  45072-3 0  9995,2 53611  53.2150 154.5881 0000957  80.1406 279.9694 15.08849825 65261,6917.85,95.437,540.377,539.053,0.0
